[{"OBJECT_NAME":"STARLINK-5553","OBJECT_ID":"2023-058S","EPOCH":"2026-03-09T22:50:44.154816","MEAN_MOTION":15.05644171,"ECCENTRICITY":0.00018229,"INCLINATION":97.604,"RA_OF_ASC_NODE":71.439,"ARG_OF_PERICENTER":87.1222,"MEAN_ANOMALY":273.0214,"EPHEMERIS_TYPE":0,"CLASSIFICATION_TYPE":"U","NORAD_CAT_ID":56333,"ELEMENT_SET_NO":999,"REV_AT_EPOCH":15823,"BSTAR":1.8477074e-5,"MEAN_MOTION_DOT":2.06e-6,"MEAN_MOTION_DDOT":0},{"OBJECT_NAME":"NOAA 16 DEB","OBJECT_ID":"2000-055LF","EPOCH":"2026-03-09T22:09:26.280576","MEAN_MOTION":15.03400913,"ECCENTRICITY":0.0013479,"INCLINATION":98.8787,"RA_OF_ASC_NODE":242.3075,"ARG_OF_PERICENTER":293.6263,"MEAN_ANOMALY":66.3543,"EPHEMERIS_TYPE":0,"CLASSIFICATION_TYPE":"U","NORAD_CAT_ID":41426,"ELEMENT_SET_NO":999,"REV_AT_EPOCH":52286,"BSTAR":0.010804821,"MEAN_MOTION_DOT":0.00150198,"MEAN_MOTION_DDOT":0}]
